STARLINK-32298          
1 61525U 24183S   26068.47073154  .00001822  00000+0  73648-4 0  9994
2 61525  53.1612 143.1144 0001257  88.4931 271.6213 15.30197754 79623
TEVEL2-3                
1 63218U 25052J   26068.64540225  .00020365  00000+0  69446-3 0  9991
2 63218  97.3994 324.7775 0004761 105.7353 254.4413 15.30377031 54855
